UNKNOWN                 
1 81824U          25063.32024517  .00007481  00000+0  28211-2 0  9998
2 81824  65.8464  28.7841 0029964 143.0714 217.2449 14.31628996583967
UNKNOWN                 
1 81833U          25066.51603645  .00000211  00000+0  73874-3 0  9997
2 81833  90.2463 356.7342 0030030  39.0873 321.2407 12.93588218416282
UNKNOWN                 
1 81838U          25064.58457662  .00007673  00000+0  18722-2 0  9992
2 81838  67.7629 281.3635 0041663 286.2737 102.5504 14.52538637592298
UNKNOWN                 
1 81844U          25064.58169015  .00008707  00000+0  33518-2 0  9990
2 81844  82.9154 152.9972 0063143 294.8537  64.6091 14.29152955582538
UNKNOWN                 
1 81845U          25065.51114123  .00004889  00000+0  56475-3 0  9990
2 81845  97.6876 262.9379 0091924 148.2703 241.9867 14.82996000607817
UNKNOWN                 
1 81864U          25058.28685220  .00001802  00000+0  74186-3 0  9999
2 81864  65.6745  20.1534 0763546 139.1957 226.8918 13.31114574 24757
UNKNOWN                 
1 81865U 87062    25066.46789853  .00002227  00000+0  18609-2 0  9998
2 81865  82.8023 244.8448 0064397  81.9152 308.6346 13.86964074569684
UNKNOWN                 
1 81893U 70025    25064.37050445  .00001977  00000+0  20884-2 0  9995
2 81893 100.0195  32.7572 0019933 274.3755  85.5115 13.75866977565236
UNKNOWN                 
1 81899U          25065.35092860  .00001271  00000+0  30544-2 0  9994
2 81899 102.4122 116.7006 0179906  90.5124 271.6599 13.19550045541869
UNKNOWN                 
1 81921U          25064.45345344  .00001115  00000+0  44828-3 0  9996
2 81921  65.7091 333.4709 0867716 235.0504 116.6045 13.13695527991446
UNKNOWN                 
1 81946U 87079    25066.19047993  .00000571  00000+0  20718-2 0  9992
2 81946  66.4226 332.1021 0665020 127.3974  27.5116 12.42503136513020
UNKNOWN                 
1 81947U          25058.94340029  .00009417  00000+0  87760-3 0  9991
2 81947  66.0745 248.7671 0403690 317.1508  39.8772 14.48665922141112
UNKNOWN                 
1 81964U          25066.20079855  .00000441  00000+0  37980-3 0  9991
2 81964  66.5828 235.3695 0043259 272.7957  86.8172 13.95560284574898
UNKNOWN                 
1 81969U          25066.29472464  .00009447  00000+0  68269-3 0  9997
2 81969  86.6559 274.8076 0009959  89.8496 270.3880 15.03906983397926
UNKNOWN                 
1 81995U          25051.34056087  .00007648  00000+0  16392-2 0  9995
2 81995  65.7486 173.6048 0519329  84.8206 281.1895 13.99005324 67043
UNKNOWN                 
1 82043U          25066.43039115  .00006372  00000+0  18150-2 0  9996
2 82043  97.9007 239.4957 0238317 205.4177 153.5131 14.30247297533740
UNKNOWN                 
1 82051U          25065.50252056  .00005979  00000+0  21328-2 0  9996
2 82051  98.7524 147.6175 0095368   8.6162 351.6631 14.32025465532106
UNKNOWN                 
1 82073U          25066.23460126  .00003351  00000+0  88342-3 0  9992
2 82073  97.7558 169.2602 0213863  62.6359 299.6417 14.36788627534814
UNKNOWN                 
1 82139U          25065.13097791  .00003110  00000+0  16123-2 0  9997
2 82139  99.0408 129.7260 0086444 119.1921 241.7933 14.13659017440309
UNKNOWN                 
1 82162U          25064.99713875  .00004740  00000+0  73583-2 0  9997
2 82162 100.4777 333.9309 0043304 193.8664 166.1281 13.51044668466221
UNKNOWN                 
1 82180U          25061.86328774  .00041092  00000+0  61144-2 0  9991
2 82180  65.6526   7.2708 0350344   0.8073 359.3511 14.40793012115636
UNKNOWN                 
1 82189U          25065.64352269  .00000670  00000+0  24445-3 0  9997
2 82189  74.0349 203.6110 0015518 103.9167 256.3712 14.34942757592094
UNKNOWN                 
1 82199U          25059.05251734  .00001081  00000+0  93109-3 0  9991
2 82199  82.9629  90.1306 0039042 132.2425 257.7350 13.85372222 74817
UNKNOWN                 
1 82205U          25066.13714569  .00002018  00000+0  61266-3 0  9996
2 82205  63.0124 320.6722 0496623 263.9280  90.4986 13.91456029568934
UNKNOWN                 
1 82223U          25061.07961940  .00004162  00000+0  23221-2 0  9991
2 82223  99.3424 296.0619 0072100  60.2654 300.5664 14.10142389408500
UNKNOWN                 
1 82250U          25064.54666874  .00006363  00000+0  34596-2 0  9996
2 82250  98.9164 331.5036 0072527 272.1334 212.0902 14.11269799576791
UNKNOWN                 
1 82272U          25056.33293665  .00000373  00000+0  12877-2 0  9995
2 82272  67.5289   6.6383 0761158 292.2901  59.9131 12.33269274955511
UNKNOWN                 
1 82295U          25062.31059066  .00001920  00000+0  71575-3 0  9990
2 82295  66.6224 175.8037 0118450  60.5675 300.7182 14.30296887139465
UNKNOWN                 
1 82303U          25066.48290083  .00024430  00000+0  27841-1 0  9994
2 82303  81.9533 241.5634 0039426 328.1876  60.8931 13.69457422475838
UNKNOWN                 
1 82311U          25064.10709997  .00000851  00000+0  12698-2 0  9995
2 82311  99.4545 130.5477 0108037 299.5707  59.4697 13.54071266512067
UNKNOWN                 
1 82363U          25065.29972137  .00000601  00000+0  10276-2 0  9994
2 82363  66.9352  76.5570 0461898 344.2749  14.4339 13.15268539253247
UNKNOWN                 
1 82369U 99025    25062.77122465  .00000749  00000+0  54129-3 0  9995
2 82369  98.9173  86.1454 0084852  44.0541 316.7342 13.97958780517499
UNKNOWN                 
1 82381U          25065.53183820  .00019298  00000+0  33724-2 0  9999
2 82381  98.4181 279.9752 0012748 314.5208  45.4953 14.67883120469381
UNKNOWN                 
1 82402U          25065.56664968  .00006711  00000+0  55011-3 0  9993
2 82402  86.6578 276.6275 0010528 101.9000 258.3413 14.99067873412287
UNKNOWN                 
1 82410U          25056.96170556  .00000494  00000+0  56639-3 0  9990
2 82410  66.6597 314.4323 0066542 235.2889 124.1903 13.77032788100070
UNKNOWN                 
1 82432U 93036    25060.62917209  .00004298  00000+0  94177-3 0  9992
2 82432  74.0091 165.6038 0057282  38.3625 322.1590 14.56956208441212
UNKNOWN                 
1 82448U          25066.51897995  .00009673  00000+0  78833-3 0  9994
2 82448  85.8769 348.6057 0008616 174.2101 185.9231 14.99342045394995
UNKNOWN                 
1 82453U          25066.56913544  .00000021  00000+0  49416-3 0  9997
2 82453 102.1381  23.6106 0094209   4.2268 355.9571 12.39669403511346
UNKNOWN                 
1 82458U          25056.70683956  .00010453  00000+0  48599-2 0  9998
2 82458  66.5133 217.3914 0054190 214.7069 145.0483 14.20087624110852
UNKNOWN                 
1 82484U          25064.31156303  .00000144  00000+0  26463-3 0  9997
2 82484  99.3843 100.0538 0044364 189.2422 170.7904 13.55647797552363
UNKNOWN                 
1 82494U 93036    25065.40137119  .00019996  00000+0  29666-2 0  9996
2 82494  74.0088 217.1953 0007904  67.9131 292.2881 14.74998658 43337
UNKNOWN                 
1 82500U          25065.19577165  .00006789  00000+0  32280-2 0  9990
2 82500  70.9678 238.3845 0128155 183.6814 176.3380 14.15488121579060
UNKNOWN                 
1 82524U          25066.21142543  .00003331  00000+0  11521-2 0  9993
2 82524  73.2858 357.6331 0143299 138.1496 292.8626 14.30550407536866
UNKNOWN                 
1 82529U          25064.72911075  .00000641  00000+0  10497-2 0  9998
2 82529  99.7929 157.0217 0242188 208.6840 306.0513 13.40615677551941
UNKNOWN                 
1 82560U          25059.26410899  .00002914  00000+0  24174-2 0  9996
2 82560  99.9787 341.0903 0010760 353.2353 161.0307 13.89631281 14162
UNKNOWN                 
1 82597U          25066.26477681  .00003025  00000+0  10534-2 0  9995
2 82597  66.7709 165.6530 0091617 161.7894 198.6526 14.34366520588736
UNKNOWN                 
1 82617U          25063.69078146  .00001393  00000+0  37272-3 0  9990
2 82617  74.0264  54.7007 0037486  67.1705 293.3406 14.48829912595820
UNKNOWN                 
1 82627U          25065.49699311  .00000693  00000+0  17992-2 0  9992
2 82627  82.4726  89.1371 0015211  91.0932  65.0857 13.15819708541834
UNKNOWN                 
1 82642U          25065.01014033  .00002424  00000+0  13892-2 0  9998
2 82642  98.9779 337.7620 0137700 305.3353  53.5006 14.05744341 65947
UNKNOWN                 
1 82683U 99057    25064.20425786  .00003224  00000+0  12409-2 0  9996
2 82683  98.1893 154.1997 0214527 142.1573 219.4908 14.19089614422180
UNKNOWN                 
1 82693U          25065.55194198  .00003959  00000+0  47079-2 0  9992
2 82693 100.5359   3.6206 0046873   4.2720 355.8812 13.67648297515290
UNKNOWN                 
1 82698U          25062.07322829  .00006663  00000+0  37553-2 0  9996
2 82698  61.6081 192.0730 0701469 184.1003 175.4059 13.28168266500541
UNKNOWN                 
1 82708U          25063.93277665  .00001429  00000+0  56301-2 0  9998
2 82708 102.1696 239.8274 0061955 142.3178 218.2276 12.89858557 27419
UNKNOWN                 
1 82729U          25066.29914195  .00000099  00000+0  48257-3 0  9993
2 82729  67.9648 270.4626 0826499 203.0272 153.1589 12.17363865501067
UNKNOWN                 
1 82737U          25065.12369924  .00122755  00000+0  37438-1 0  9998
2 82737 102.9101 208.1784 0104259 324.5487  34.8784 14.38002239509366
UNKNOWN                 
1 82739U          25064.71711963  .00000895  00000+0  78573-3 0  9995
2 82739  99.0597 231.4223 0173763 328.2892  41.9290 13.81493288567154
UNKNOWN                 
1 82741U          25065.07156845  .00002836  00000+0  31865-2 0  9999
2 82741 102.8544  10.3026 0197839 176.9405 183.2984 13.64144107558643
UNKNOWN                 
1 82783U          25064.84391143  .00000122  00000+0  33632-3 0  9992
2 82783  90.3287  29.3457 0022678 144.5676 215.6963 13.08556274467489
UNKNOWN                 
1 82798U          25065.73509961  .00003719  00000+0  16942-2 0  9995
2 82798  82.9484  56.7118 0029456 302.1296 232.1756 14.21224720272426
UNKNOWN                 
1 82820U          25064.14390540  .00006285  00000+0  23262-2 0  9990
2 82820  99.7669 188.4393 0051948 102.6930 258.0064 14.31977530585140
